CCSDS_OMM_VERS = 2.0
CREATION_DATE  = 
ORIGINATOR     = 

OBJECT_NAME    = SL-3 R/B
OBJECT_ID      = 1988-032B
CENTER_NAME    = EARTH
REF_FRAME      = TEME
TIME_SYSTEM    = UTC
MEAN_ELEMENT_THEORY = SGP/SGP4

EPOCH          = 2026-04-02T21:24:34.297632
MEAN_MOTION    = 15.20188866
ECCENTRICITY   = .0026869
INCLINATION    = 97.5219
RA_OF_ASC_NODE = 76.0668
ARG_OF_PERICENTER = 146.2294
MEAN_ANOMALY   = 214.0659

EPHEMERIS_TYPE = 0
CLASSIFICATION_TYPE = U
NORAD_CAT_ID   = 19046
ELEMENT_SET_NO = 999
REV_AT_EPOCH   = 5578
BSTAR          = .4343588E-3
MEAN_MOTION_DOT = .9431E-4
MEAN_MOTION_DDOT = 0

CCSDS_OMM_VERS = 2.0
CREATION_DATE  = 
ORIGINATOR     = 

OBJECT_NAME    = SL-16 R/B
OBJECT_ID      = 1988-039B
CENTER_NAME    = EARTH
REF_FRAME      = TEME
TIME_SYSTEM    = UTC
MEAN_ELEMENT_THEORY = SGP/SGP4

EPOCH          = 2026-04-02T22:30:06.886080
MEAN_MOTION    = 14.19620466
ECCENTRICITY   = .00237842
INCLINATION    = 71.0174
RA_OF_ASC_NODE = 17.2750
ARG_OF_PERICENTER = 299.7254
MEAN_ANOMALY   = 60.1504

EPHEMERIS_TYPE = 0
CLASSIFICATION_TYPE = U
NORAD_CAT_ID   = 19120
ELEMENT_SET_NO = 999
REV_AT_EPOCH   = 96182
BSTAR          = -.3922932E-5
MEAN_MOTION_DOT = -.57E-6
MEAN_MOTION_DDOT = 0

CCSDS_OMM_VERS = 2.0
CREATION_DATE  = 
ORIGINATOR     = 

OBJECT_NAME    = COSMOS 1953
OBJECT_ID      = 1988-050A
CENTER_NAME    = EARTH
REF_FRAME      = TEME
TIME_SYSTEM    = UTC
MEAN_ELEMENT_THEORY = SGP/SGP4

EPOCH          = 2026-04-02T20:16:05.738304
MEAN_MOTION    = 15.28906163
ECCENTRICITY   = .00119854
INCLINATION    = 82.5066
RA_OF_ASC_NODE = 133.9460
ARG_OF_PERICENTER = 47.2190
MEAN_ANOMALY   = 313.0055

EPHEMERIS_TYPE = 0
CLASSIFICATION_TYPE = U
NORAD_CAT_ID   = 19210
ELEMENT_SET_NO = 999
REV_AT_EPOCH   = 4147
BSTAR          = .33317562E-3
MEAN_MOTION_DOT = .9407E-4
MEAN_MOTION_DDOT = 0

CCSDS_OMM_VERS = 2.0
CREATION_DATE  = 
ORIGINATOR     = 

OBJECT_NAME    = SL-8 R/B
OBJECT_ID      = 1988-053B
CENTER_NAME    = EARTH
REF_FRAME      = TEME
TIME_SYSTEM    = UTC
MEAN_ELEMENT_THEORY = SGP/SGP4

EPOCH          = 2026-04-02T15:56:12.257664
MEAN_MOTION    = 14.38932407
ECCENTRICITY   = .00214068
INCLINATION    = 74.0465
RA_OF_ASC_NODE = 68.2700
ARG_OF_PERICENTER = 244.3423
MEAN_ANOMALY   = 288.6433

EPHEMERIS_TYPE = 0
CLASSIFICATION_TYPE = U
NORAD_CAT_ID   = 19257
ELEMENT_SET_NO = 999
REV_AT_EPOCH   = 98004
BSTAR          = .10394045E-3
MEAN_MOTION_DOT = .295E-5
MEAN_MOTION_DDOT = 0

CCSDS_OMM_VERS = 2.0
CREATION_DATE  = 
ORIGINATOR     = 

OBJECT_NAME    = COSMOS 1975
OBJECT_ID      = 1988-093A
CENTER_NAME    = EARTH
REF_FRAME      = TEME
TIME_SYSTEM    = UTC
MEAN_ELEMENT_THEORY = SGP/SGP4

EPOCH          = 2026-04-02T22:49:55.901280
MEAN_MOTION    = 15.28420394
ECCENTRICITY   = .00134232
INCLINATION    = 82.5155
RA_OF_ASC_NODE = 93.3173
ARG_OF_PERICENTER = 87.1083
MEAN_ANOMALY   = 273.1692

EPHEMERIS_TYPE = 0
CLASSIFICATION_TYPE = U
NORAD_CAT_ID   = 19573
ELEMENT_SET_NO = 999
REV_AT_EPOCH   = 2311
BSTAR          = .41399629E-3
MEAN_MOTION_DOT = .11518E-3
MEAN_MOTION_DDOT = 0

CCSDS_OMM_VERS = 2.0
CREATION_DATE  = 
ORIGINATOR     = 

OBJECT_NAME    = SL-14 R/B
OBJECT_ID      = 1988-093B
CENTER_NAME    = EARTH
REF_FRAME      = TEME
TIME_SYSTEM    = UTC
MEAN_ELEMENT_THEORY = SGP/SGP4

EPOCH          = 2026-04-02T21:50:39.331680
MEAN_MOTION    = 14.85687029
ECCENTRICITY   = .00196816
INCLINATION    = 82.5344
RA_OF_ASC_NODE = 19.3117
ARG_OF_PERICENTER = 321.6759
MEAN_ANOMALY   = 107.1977

EPHEMERIS_TYPE = 0
CLASSIFICATION_TYPE = U
NORAD_CAT_ID   = 19574
ELEMENT_SET_NO = 999
REV_AT_EPOCH   = 461
BSTAR          = .89350682E-4
MEAN_MOTION_DOT = .801E-5
MEAN_MOTION_DDOT = 0

CCSDS_OMM_VERS = 2.0
CREATION_DATE  = 
ORIGINATOR     = 

OBJECT_NAME    = SL-16 R/B
OBJECT_ID      = 1988-102B
CENTER_NAME    = EARTH
REF_FRAME      = TEME
TIME_SYSTEM    = UTC
MEAN_ELEMENT_THEORY = SGP/SGP4

EPOCH          = 2026-04-02T10:13:53.689440
MEAN_MOTION    = 14.16154222
ECCENTRICITY   = .00153066
INCLINATION    = 70.9970
RA_OF_ASC_NODE = 101.5515
ARG_OF_PERICENTER = 326.7216
MEAN_ANOMALY   = 33.2943

EPHEMERIS_TYPE = 0
CLASSIFICATION_TYPE = U
NORAD_CAT_ID   = 19650
ELEMENT_SET_NO = 999
REV_AT_EPOCH   = 93025
BSTAR          = .11139854E-3
MEAN_MOTION_DOT = .173E-5
MEAN_MOTION_DDOT = 0

CCSDS_OMM_VERS = 2.0
CREATION_DATE  = 
ORIGINATOR     = 

OBJECT_NAME    = INTERCOSMOS 24
OBJECT_ID      = 1989-080A
CENTER_NAME    = EARTH
REF_FRAME      = TEME
TIME_SYSTEM    = UTC
MEAN_ELEMENT_THEORY = SGP/SGP4

EPOCH          = 2026-04-02T17:04:57.601056
MEAN_MOTION    = 12.59587766
ECCENTRICITY   = .1186972
INCLINATION    = 82.6015
RA_OF_ASC_NODE = 88.7562
ARG_OF_PERICENTER = 237.0150
MEAN_ANOMALY   = 111.1392

EPHEMERIS_TYPE = 0
CLASSIFICATION_TYPE = U
NORAD_CAT_ID   = 20261
ELEMENT_SET_NO = 999
REV_AT_EPOCH   = 66982
BSTAR          = .14277163E-3
MEAN_MOTION_DOT = .485E-5
MEAN_MOTION_DDOT = 0

CCSDS_OMM_VERS = 2.0
CREATION_DATE  = 
ORIGINATOR     = 

OBJECT_NAME    = SL-14 R/B
OBJECT_ID      = 1989-080C
CENTER_NAME    = EARTH
REF_FRAME      = TEME
TIME_SYSTEM    = UTC
MEAN_ELEMENT_THEORY = SGP/SGP4

EPOCH          = 2026-04-02T21:08:56.204448
MEAN_MOTION    = 12.50517227
ECCENTRICITY   = .12309005
INCLINATION    = 82.5948
RA_OF_ASC_NODE = 157.6632
ARG_OF_PERICENTER = 129.4820
MEAN_ANOMALY   = 242.1848

EPHEMERIS_TYPE = 0
CLASSIFICATION_TYPE = U
NORAD_CAT_ID   = 20262
ELEMENT_SET_NO = 999
REV_AT_EPOCH   = 66317
BSTAR          = .15365663E-3
MEAN_MOTION_DOT = .54E-5
MEAN_MOTION_DDOT = 0

CCSDS_OMM_VERS = 2.0
CREATION_DATE  = 
ORIGINATOR     = 

OBJECT_NAME    = DELTA 1 R/B
OBJECT_ID      = 1989-089B
CENTER_NAME    = EARTH
REF_FRAME      = TEME
TIME_SYSTEM    = UTC
MEAN_ELEMENT_THEORY = SGP/SGP4

EPOCH          = 2026-04-02T19:56:50.032032
MEAN_MOTION    = 14.50684221
ECCENTRICITY   = .00702383
INCLINATION    = 97.0686
RA_OF_ASC_NODE = 296.4264
ARG_OF_PERICENTER = 47.1658
MEAN_ANOMALY   = 313.5413

EPHEMERIS_TYPE = 0
CLASSIFICATION_TYPE = U
NORAD_CAT_ID   = 20323
ELEMENT_SET_NO = 999
REV_AT_EPOCH   = 89923
BSTAR          = .13996935E-3
MEAN_MOTION_DOT = .532E-5
MEAN_MOTION_DDOT = 0

CCSDS_OMM_VERS = 2.0
CREATION_DATE  = 
ORIGINATOR     = 

OBJECT_NAME    = ARIANE 40 R/B
OBJECT_ID      = 1990-005H
CENTER_NAME    = EARTH
REF_FRAME      = TEME
TIME_SYSTEM    = UTC
MEAN_ELEMENT_THEORY = SGP/SGP4

EPOCH          = 2026-04-02T10:34:09.094656
MEAN_MOTION    = 14.39886765
ECCENTRICITY   = .00111851
INCLINATION    = 98.3034
RA_OF_ASC_NODE = 152.3883
ARG_OF_PERICENTER = 129.8458
MEAN_ANOMALY   = 230.3717

EPHEMERIS_TYPE = 0
CLASSIFICATION_TYPE = U
NORAD_CAT_ID   = 20443
ELEMENT_SET_NO = 999
REV_AT_EPOCH   = 89622
BSTAR          = .14072581E-3
MEAN_MOTION_DOT = .4E-5
MEAN_MOTION_DDOT = 0

CCSDS_OMM_VERS = 2.0
CREATION_DATE  = 
ORIGINATOR     = 

OBJECT_NAME    = DELTA 2 R/B(1)
OBJECT_ID      = 1990-008B
CENTER_NAME    = EARTH
REF_FRAME      = TEME
TIME_SYSTEM    = UTC
MEAN_ELEMENT_THEORY = SGP/SGP4

EPOCH          = 2026-04-02T22:10:30.141408
MEAN_MOTION    = 15.59354559
ECCENTRICITY   = .00765441
INCLINATION    = 35.6042
RA_OF_ASC_NODE = 15.4276
ARG_OF_PERICENTER = 126.7009
MEAN_ANOMALY   = 234.0790

EPHEMERIS_TYPE = 0
CLASSIFICATION_TYPE = U
NORAD_CAT_ID   = 20453
ELEMENT_SET_NO = 999
REV_AT_EPOCH   = 92991
BSTAR          = .117689E-2
MEAN_MOTION_DOT = .112027E-2
MEAN_MOTION_DDOT = 0

