SL-3 R/B                
1 19046U 88032B   26092.89206363  .00009431  00000+0  43436-3 0  9996
2 19046  97.5219  76.0668 0026869 146.2294 214.0659 15.20188866 55784
SL-16 R/B               
1 19120U 88039B   26092.93757970 -.00000057  00000+0 -39229-5 0  9990
2 19120  71.0174  17.2750 0023784 299.7254  60.1504 14.19620466961820
COSMOS 1953             
1 19210U 88050A   26092.84451086  .00009407  00000+0  33318-3 0  9999
2 19210  82.5066 133.9460 0011985  47.2190 313.0055 15.28906163 41479
SL-8 R/B                
1 19257U 88053B   26092.66403076  .00000295  00000+0  10394-3 0  9994
2 19257  74.0465  68.2700 0021406 244.3423 288.6433 14.38932407980046
COSMOS 1975             
1 19573U 88093A   26092.95134145  .00011518  00000+0  41400-3 0  9991
2 19573  82.5155  93.3173 0013423  87.1083 273.1692 15.28420394 23114
SL-14 R/B               
1 19574U 88093B   26092.91017745  .00000801  00000+0  89351-4 0  9995
2 19574  82.5344  19.3117 0019681 321.6759 107.1977 14.85687029  4617
SL-16 R/B               
1 19650U 88102B   26092.42631585  .00000173  00000+0  11140-3 0  9993
2 19650  70.9970 101.5515 0015306 326.7216  33.2943 14.16154222930256
INTERCOSMOS 24          
1 20261U 89080A   26092.71177779  .00000485  00000+0  14277-3 0  9991
2 20261  82.6015  88.7562 1186972 237.0150 111.1392 12.59587766669828
SL-14 R/B               
1 20262U 89080C   26092.88120607  .00000540  00000+0  15366-3 0  9990
2 20262  82.5948 157.6632 1230900 129.4820 242.1848 12.50517227663175
DELTA 1 R/B             
1 20323U 89089B   26092.83113463  .00000532  00000+0  13997-3 0  9993
2 20323  97.0686 296.4264 0070238  47.1658 313.5413 14.50684221899236
ARIANE 40 R/B           
1 20443U 90005H   26092.44038304  .00000400  00000+0  14073-3 0  9993
2 20443  98.3034 152.3883 0011185 129.8458 230.3717 14.39886765896222
DELTA 2 R/B(1)          
1 20453U 90008B   26092.92395997  .00112027  00000+0  11769-2 0  9991
2 20453  35.6042  15.4276 0076544 126.7009 234.0790 15.59354559929918
